BEIDOU 3 (C01)          
1 36287U 10001A   22026.94771882 -.00000275  00000+0  00000+0 0  9999
2 36287   1.8402  46.3285 0001458  35.2683 166.1508  1.00268217 44097
BEIDOU 5 (C06)          
1 36828U 10036A   22029.58025442 -.00000111  00000+0  00000+0 0  9994
2 36828  54.1900 177.5033 0027349 178.5281  89.3453  1.00286906 42180
BEIDOU 6 (C04)          
1 37210U 10057A   22029.63748933 -.00000115  00000+0  00000+0 0  9990
2 37210   0.9170  51.7073 0005295 163.7799 302.8740  1.00272383 41249
BEIDOU 7 (C07)          
1 37256U 10068A   22029.65368225 -.00000182  00000+0  00000+0 0  9990
2 37256  50.4585 291.3076 0017600 188.5647 351.0451  1.00294019 40754
BEIDOU 8 (C08)          
1 37384U 11013A   22029.50217611 -.00000164  00000+0  00000+0 0  9999
2 37384  60.0965  55.6386 0020986 193.8144 167.1144  1.00292503 39638
BEIDOU 9 (C09)          
1 37763U 11038A   22029.58566185 -.00000057  00000+0  00000+0 0  9999
2 37763  54.4751 179.9779 0087738 225.1936  29.2232  1.00263410 38608
BEIDOU 10 (C10)         
1 37948U 11073A   22028.91682176 -.00000140  00000+0  00000+0 0  9991
2 37948  50.5734 290.9485 0077741 219.1870  43.3316  1.00284602 37359
BEIDOU 11 (C05)         
1 38091U 12008A   22029.15634759  .00000053  00000+0  00000+0 0  9993
2 38091   2.0526  71.9710 0007363 277.0757 254.4698  1.00276859 36439
BEIDOU 12 (C11)         
1 38250U 12018A   22029.34494939 -.00000087  00000+0  00000+0 0  9994
2 38250  56.7273 358.1538 0024379 255.4163 289.0360  1.86234452 66492
BEIDOU 13 (C12)         
1 38251U 12018B   22029.07139841 -.00000086  00000+0  00000+0 0  9992
2 38251  56.6477 357.4974 0015407 260.6587 144.6639  1.86234246 66490
BEIDOU 15 (C14)         
1 38775U 12050B   22029.23974404 -.00000038  00000+0  00000+0 0  9996
2 38775  55.3214 116.3733 0012563 321.2294  33.7872  1.86231271 63860
BEIDOU 16 (C02)         
1 38953U 12059A   22028.00882760 -.00000171  00000+0  00000+0 0  9998
2 38953   1.6413  84.6065 0012441 280.6183 209.1669  1.00269017 33997
BEIDOU 17 (C31)         
1 40549U 15019A   22029.23342690 -.00000189  00000+0  00000+0 0  9999
2 40549  52.1241 314.3729 0035490 190.6779 163.6768  1.00272338 25031
BEIDOU 18 (C57)         
1 40748U 15037A   22029.41294368 -.00000089  00000+0  00000+0 0  9997
2 40748  55.9038 356.4359 0004731 340.0512 203.9085  1.86233388 44322
BEIDOU 19 (C58)         
1 40749U 15037B   22029.31860112 -.00000089  00000+0  00000+0 0  9993
2 40749  55.9072 356.4294 0007114 315.0341 300.7591  1.86232062 44314
BEIDOU 20 (C18)         
1 40938U 15053A   22029.22478455 -.00000102  00000+0  00000+0 0  9992
2 40938  51.7142 277.4740 0042628 194.1723 193.9337  1.00277290 23318
BEIDOU IGSO-6 (C13)     
1 41434U 16021A   22028.67087715 -.00000141  00000+0  00000+0 0  9996
2 41434  57.8932  54.2862 0044995 217.8138 192.8730  1.00269181 21438
BEIDOU-2 G7 (C03)       
1 41586U 16037A   22029.54910483 -.00000358  00000+0  00000+0 0  9995
2 41586   1.6691  67.3426 0008565   0.5333   9.0899  1.00273516 20759
BEIDOU-3 M1 (C19)       
1 43001U 17069A   22029.63623554 -.00000037  00000+0  00000+0 0  9999
2 43001  55.4752 116.3418 0009278 284.1873 132.8111  1.86231632 28819
BEIDOU-3 M2 (C20)       
1 43002U 17069B   22029.38144209 -.00000037  00000+0  00000+0 0  9997
2 43002  55.4745 116.3865 0007145 308.3471 341.0082  1.86231372 28791
BEIDOU-3 M3 (C27)       
1 43107U 18003A   22029.49702773 -.00000090  00000+0  00000+0 0  9999
2 43107  55.3505 357.4119 0004059  35.4005 137.4493  1.86232516 27560
BEIDOU-3 M4 (C28)       
1 43108U 18003B   22029.17867546 -.00000089  00000+0  00000+0 0  9993
2 43108  55.3447 357.4130 0004035 264.8296  99.2499  1.86230962 27567
BEIDOU-3 M5 (C21)       
1 43207U 18018A   22028.54503621 -.00000037  00000+0  00000+0 0  9993
2 43207  55.4338 116.4973 0004444 332.3391  27.6550  1.86231522 26932
BEIDOU-3 M6 (C22)       
1 43208U 18018B   22028.61171677 -.00000037  00000+0  00000+0 0  9994
2 43208  55.4326 116.4997 0007219 294.2913  65.6513  1.86231688 26939
BEIDOU-3 M7 (C29)       
1 43245U 18029A   22029.52214769 -.00000091  00000+0  00000+0 0  9998
2 43245  55.2717 355.1893 0001529 302.8966 157.1336  1.86232610 26106
BEIDOU-3 M8 (C30)       
1 43246U 18029B   22029.57038258 -.00000092  00000+0  10000-3 0  9997
2 43246  55.2687 355.2181 0004833 340.6302 198.1608  1.86232851 26091
BEIDOU IGSO-7 (C16)     
1 43539U 18057A   22029.33035471 -.00000109  00000+0  00000+0 0  9995
2 43539  55.0698 176.9361 0040993 220.5848 320.8677  1.00252560 13116
BEIDOU-3 M9 (C23)       
1 43581U 18062A   22029.26269921  .00000102  00000+0  00000+0 0  9991
2 43581  54.3199 236.8525 0002631 325.2321 217.8823  1.86231946 23832
BEIDOU-3 M10 (C24)      
1 43582U 18062B   22029.25276385  .00000102  00000+0  00000+0 0  9993
2 43582  54.3193 236.8430 0006985  18.5938 249.5146  1.86232337 23839
BEIDOU-3 M11 (C25)      
1 43602U 18067A   22029.05491275  .00000105  00000+0  00000+0 0  9999
2 43602  54.3992 235.4517 0007982  12.7132 164.3979  1.86231669 23329
BEIDOU-3 M12 (C26)      
1 43603U 18067B   22029.20670498  .00000103  00000+0  00000+0 0  9991
2 43603  54.3964 235.4134 0005008   7.8031 181.4824  1.86231603 23343
BEIDOU-3 M13 (C32)      
1 43622U 18072A   22029.42220146 -.00000037  00000+0  00000+0 0  9990
2 43622  55.4005 116.0279 0006167 276.3920  87.0816  1.86231447 22867
BEIDOU-3 M14 (C33)      
1 43623U 18072B   22029.17780088 -.00000038  00000+0  00000+0 0  9990
2 43623  55.4016 116.0278 0003670 301.3474 348.5020  1.86231431 22852
BEIDOU-3 M15 (C34)      
1 43647U 18078A   22029.25420218 -.00000090  00000+0  10000-3 0  9990
2 43647  55.1664 355.3700 0007342 351.4759 244.9633  1.86232611 22360
BEIDOU-3 M16 (C35)      
1 43648U 18078B   22029.05097713 -.00000089  00000+0  00000+0 0  9992
2 43648  55.1625 355.3829 0004905 355.2587  12.9798  1.86232289 22381
BEIDOU-3 G1 (C59)       
1 43683U 18085A   22029.53799347 -.00000281  00000+0  00000+0 0  9998
2 43683   0.8415 191.4011 0002170  26.2748 244.7678  1.00269226 12010
BEIDOU-3 M17 (C36)      
1 43706U 18093A   22029.19107141  .00000103  00000+0  00000+0 0  9992
2 43706  54.4013 236.7292 0007347 286.7111  73.2665  1.86231661 21744
BEIDOU-3 M18 (C37)      
1 43707U 18093B   22029.32328332  .00000101  00000+0  00000+0 0  9993
2 43707  54.4016 236.7165 0007414 318.7815 220.9274  1.86232250 21730
BEIDOU-3 IGSO-1 (C38)   
1 44204U 19023A   22029.37757675 -.00000201  00000+0  00000+0 0  9993
2 44204  56.3521  54.4705 0022403 195.5822 130.4631  1.00252937 10318
BEIDOU-2 G8             
1 44231U 19027A   22029.62506208 -.00000250  00000+0  00000+0 0  9993
2 44231   0.5406  66.5186 0006061 146.9785 284.9002  1.00273605 10039
BEIDOU-3 IGSO-2 (C39)   
1 44337U 19035A   22029.44709350 -.00000126  00000+0  00000+0 0  9994
2 44337  55.1120 172.9623 0022556 187.1187  45.9426  1.00295617  9651
BEIDOU-3 M23 (C45)      
1 44542U 19061A   22029.12638000  .00000104  00000+0  00000+0 0  9994
2 44542  54.6272 236.8458 0008723 353.4210   6.6264  1.86231345 15992
BEIDOU-3 M24 (C46)      
1 44543U 19061B   22029.18920174  .00000103  00000+0  00000+0 0  9996
2 44543  54.6250 236.8138 0005873 350.2021 323.0868  1.86231865 15984
BEIDOU-3 IGSO-3         
1 44709U 19073A   22026.38330787 -.00000189  00000+0  00000+0 0  9992
2 44709  57.4946 297.8602 0017663 183.4866 258.5433  1.00250387  8389
BEIDOU-3 M21            
1 44793U 19078A   22029.32165515 -.00000091  00000+0  10000-3 0  9999
2 44793  55.0150 355.4057 0006933 356.2063 239.5821  1.86232298 14859
BEIDOU-3 M22            
1 44794U 19078B   22028.56646749 -.00000086  00000+0  00000+0 0  9997
2 44794  54.9895 355.4256 0004911 346.3697  14.5031  1.86232907 14842
BEIDOU-3 M19            
1 44864U 19090A   22029.34147791 -.00000037  00000+0  00000+0 0  9995
2 44864  55.3348 116.2496 0016336 264.7885  90.2183  1.86231750 14432
BEIDOU-3 M20            
1 44865U 19090B   22029.21381157 -.00000038  00000+0  00000+0 0  9999
2 44865  55.3366 116.2852 0014535 278.9315  80.3702  1.86231731 14406
BEIDOU-3 G2             
1 45344U 20017A   22029.51943718 -.00000139  00000+0  00000+0 0  9995
2 45344   2.1748 345.4881 0001308  62.7361 347.5070  1.00272379  7222
BEIDOU-3 G3             
1 45807U 20040A   22029.64580780 -.00000354  00000+0  00000+0 0  9994
2 45807   1.7602 300.3391 0008296 349.2152 182.2796  1.00274624  6043
